FENGYUN 3D              
1 43010U 17072A   26155.81426086  .00000120  00000+0  78419-4 0  9994
2 43010  99.0124 130.0135 0002655  80.9653 279.1822 14.19737024443232
NOAA 20 (JPSS-1)        
1 43013U 17073A   26155.66620875  .00000078  00000+0  58028-4 0  9999
2 43013  98.7769  95.2403 0000625  37.1297 322.9922 14.19509351442696
GOES 17                 
1 43226U 18022A   26155.61868725 -.00000171  00000+0  00000+0 0  9990
2 43226   0.9055  85.9449 0000758   6.1265 294.2303  1.00271621 30294
SENTINEL-3B             
1 43437U 18039A   26155.63646007  .00000150  00000+0  80159-4 0  9995
2 43437  98.6251 223.3483 0000957  75.6484 284.4803 14.26738215422336
FENGYUN 2H              
1 43491U 18050A   26155.86258914 -.00000119  00000+0  00000+0 0  9997
2 43491   2.9997  79.2132 0001430 126.7964  77.2820  1.00271923 29312
METOP-C                 
1 43689U 18087A   26155.67985019  .00000141  00000+0  84138-4 0  9991
2 43689  98.6649 215.5115 0001274 143.1590 216.9675 14.21508765393056
GEO-KOMPSAT-2A          
1 43823U 18100A   26155.72968677 -.00000332  00000+0  00000+0 0  9998
2 43823   0.0505 138.9461 0002315 305.7918 199.3806  1.00269705 27508
METEOR-M2 2             
1 44387U 19038A   26155.81108914  .00000033  00000+0  33933-4 0  9998
2 44387  98.9141 142.9143 0002372  65.8774 294.2652 14.24362011359534
ARKTIKA-M 1             
1 47719U 21016A   26153.03917935 -.00000200  00000+0  00000+0 0  9993
2 47719  63.2379  59.8266 7283239 269.8643  14.6915  2.00628509 38489
FENGYUN 3E              
1 49008U 21062A   26155.86997876 -.00000191  00000+0 -69456-4 0  9997
2 49008  98.7489 159.4153 0002658 104.5979 255.5492 14.19902078254837
GOES 18                 
1 51850U 22021A   26155.62433821  .00000109  00000+0  00000+0 0  9992
2 51850   0.0401 135.7142 0000618 344.7632 220.3521  1.00271724  6468
NOAA 21 (JPSS-2)        
1 54234U 22150A   26155.69956720  .00000079  00000+0  57966-4 0  9993
2 54234  98.7057  94.6986 0000948 186.7855 173.3308 14.19563170184778
METEOSAT-12 (MTG-I1)    
1 54743U 22170C   26155.20850763  .00000003  00000+0  00000+0 0  9996
2 54743   0.7239  20.7612 0003592  69.3015 237.2366  1.00271394 12848
TIANMU-1 03             
1 55973U 23039A   26155.82586074  .00017511  00000+0  34932-3 0  9993
2 55973  97.5234 329.3147 0004022 129.2582 230.9025 15.46918017178927
TIANMU-1 04             
1 55974U 23039B   26155.82006073  .00018058  00000+0  35293-3 0  9998
2 55974  97.5170 328.4618 0004708 127.1217 233.0463 15.47502562178939
TIANMU-1 05             
1 55975U 23039C   26155.80603582  .00016480  00000+0  32974-3 0  9995
2 55975  97.5216 328.9135 0003581 145.1577 214.9907 15.46845938178901
TIANMU-1 06             
1 55976U 23039D   26155.82269091  .00017820  00000+0  34946-3 0  9991
2 55976  97.5222 329.5544 0003942 141.1062 219.0472 15.47411472178935
FENGYUN 3G              
1 56232U 23055A   26155.81801468  .00028729  00000+0  43714-3 0  9997
2 56232  49.9933  49.8022 0005573 147.0987 213.0328 15.54228338178082
METEOR-M2 3             
1 57166U 23091A   26155.87282711  .00000017  00000+0  26088-4 0  9990
2 57166  98.6087 211.1026 0003636 189.1417 170.9696 14.24045765152764
TIANMU-1 07             
1 57399U 23101A   26155.86789056  .00007353  00000+0  25839-3 0  9995
2 57399  97.2593 206.8202 0003277 147.5539 212.5903 15.29659254159761
TIANMU-1 08             
1 57400U 23101B   26155.83456708  .00007714  00000+0  27085-3 0  9996
2 57400  97.2583 206.5601 0004863 145.4575 214.6983 15.29664008159755
TIANMU-1 09             
1 57401U 23101C   26155.88362894  .00007911  00000+0  27751-3 0  9993
2 57401  97.2540 206.0301 0003642 155.7464 204.3949 15.29691315159766
TIANMU-1 10             
1 57402U 23101D   26155.85103368  .00007430  00000+0  26100-3 0  9993
2 57402  97.2619 207.0362 0005213 159.7390 200.4059 15.29661309159758
FENGYUN 3F              
1 57490U 23111A   26155.85418009  .00000074  00000+0  55191-4 0  9992
2 57490  98.6837 226.0924 0001569 102.3129 257.8223 14.19936984147119
ARKTIKA-M 2             
1 58584U 23198A   26152.80817955  .00000145  00000+0  00000+0 0  9990
2 58584  63.2208 156.0807 6898127 267.4735  18.7853  2.00592153 18014
TIANMU-1 11             
1 58645U 23205A   26155.86437627  .00006656  00000+0  25461-3 0  9995
2 58645  97.3448 177.6157 0010280  56.1694 304.0522 15.26862066135648
TIANMU-1 12             
1 58646U 23205B   26155.83443630  .00006704  00000+0  25686-3 0  9997
2 58646  97.3437 177.3446 0008173  43.9990 316.1898 15.26822812135629
TIANMU-1 13             
1 58647U 23205C   26155.86544185  .00007065  00000+0  27175-3 0  9994
2 58647  97.3464 177.6458 0007410  25.7869 334.3738 15.26678271135625
TIANMU-1 14             
1 58648U 23205D   26155.85100804  .00006748  00000+0  25930-3 0  9994
2 58648  97.3401 176.8231 0008404  28.9847 331.1857 15.26722925135625
TIANMU-1 19             
1 58660U 23208A   26155.28460546  .00009493  00000+0  31575-3 0  9992
2 58660  97.4498 271.5216 0004948  19.4611 340.6818 15.31369926135351
TIANMU-1 20             
1 58661U 23208B   26155.78947387  .00009560  00000+0  30619-3 0  9994
2 58661  97.4439 272.6513 0007146  20.3907 339.7619 15.32571037135527
