OBJECT_NAME,OBJECT_ID,EPOCH,MEAN_MOTION,ECCENTRICITY,INCLINATION,RA_OF_ASC_NODE,ARG_OF_PERICENTER,MEAN_ANOMALY,EPHEMERIS_TYPE,CLASSIFICATION_TYPE,NORAD_CAT_ID,ELEMENT_SET_NO,REV_AT_EPOCH,BSTAR,MEAN_MOTION_DOT,MEAN_MOTION_DDOT
FENGYUN 3D,2017-072A,2026-06-04T19:32:32.138304,14.19737024,.0002655,99.0124,130.0135,80.9653,279.1822,0,U,43010,999,44323,.78419E-4,.12E-5,0
NOAA 20 (JPSS-1),2017-073A,2026-06-04T15:59:20.436000,14.19509351,.0000625,98.7769,95.2403,37.1297,322.9922,0,U,43013,999,44269,.58028E-4,.78E-6,0
GOES 17,2018-022A,2026-06-04T14:50:54.578400,1.00271621,.0000758,0.9055,85.9449,6.1265,294.2303,0,U,43226,999,3029,0,-.171E-5,0
SENTINEL-3B,2018-039A,2026-06-04T15:16:30.150048,14.26738215,.0000957,98.6251,223.3483,75.6484,284.4803,0,U,43437,999,42233,.80159E-4,.15E-5,0
FENGYUN 2H,2018-050A,2026-06-04T20:42:07.701696,1.00271923,.000143,2.9997,79.2132,126.7964,77.2820,0,U,43491,999,2931,0,-.119E-5,0
METOP-C,2018-087A,2026-06-04T16:18:59.056416,14.21508765,.0001274,98.6649,215.5115,143.1590,216.9675,0,U,43689,999,39305,.84138E-4,.141E-5,0
GEO-KOMPSAT-2A,2018-100A,2026-06-04T17:30:44.936928,1.00269705,.0002315,0.0505,138.9461,305.7918,199.3806,0,U,43823,999,2750,0,-.332E-5,0
METEOR-M2 2,2019-038A,2026-06-04T19:27:58.101696,14.24362011,.0002372,98.9141,142.9143,65.8774,294.2652,0,U,44387,999,35953,.33933E-4,.33E-6,0
ARKTIKA-M 1,2021-016A,2026-06-02T00:56:25.095840,2.00628509,.72832396,63.2379,59.8266,269.8643,14.6915,0,U,47719,999,3848,0,-.2E-5,0
FENGYUN 3E,2021-062A,2026-06-04T20:52:46.164864,14.19902078,.0002658,98.7489,159.4153,104.5979,255.5492,0,U,49008,999,25483,-.69456E-4,-.191E-5,0
GOES 18,2022-021A,2026-06-04T14:59:02.821344,1.00271724,.0000618,0.0401,135.7142,344.7632,220.3521,0,U,51850,999,646,0,.109E-5,0
NOAA 21 (JPSS-2),2022-150A,2026-06-04T16:47:22.606080,14.19563170,.0000948,98.7057,94.6986,186.7855,173.3308,0,U,54234,999,18477,.57966E-4,.79E-6,0
METEOSAT-12 (MTG-I1),2022-170C,2026-06-04T05:00:15.059232,1.00271394,.00035924,0.7239,20.7612,69.3015,237.2366,0,U,54743,999,1284,0,.3E-7,0
TIANMU-1 03,2023-039A,2026-06-04T19:49:14.367936,15.46918017,.0004022,97.5234,329.3147,129.2582,230.9025,0,U,55973,999,17892,.34932E-3,.17511E-3,0
TIANMU-1 04,2023-039B,2026-06-04T19:40:53.247072,15.47502562,.0004708,97.5170,328.4618,127.1217,233.0463,0,U,55974,999,17893,.35293E-3,.18058E-3,0
TIANMU-1 05,2023-039C,2026-06-04T19:20:41.494848,15.46845938,.0003581,97.5216,328.9135,145.1577,214.9907,0,U,55975,999,17890,.32974E-3,.1648E-3,0
TIANMU-1 06,2023-039D,2026-06-04T19:44:40.494624,15.47411472,.0003942,97.5222,329.5544,141.1062,219.0472,0,U,55976,999,17893,.34946E-3,.1782E-3,0
FENGYUN 3G,2023-055A,2026-06-04T19:37:56.468352,15.54228338,.0005573,49.9933,49.8022,147.0987,213.0328,0,U,56232,999,17808,.43714E-3,.28729E-3,0
METEOR-M2 3,2023-091A,2026-06-04T20:56:52.262304,14.24045765,.0003636,98.6087,211.1026,189.1417,170.9696,0,U,57166,999,15276,.26088E-4,.17E-6,0
TIANMU-1 07,2023-101A,2026-06-04T20:49:45.744384,15.29659254,.0003277,97.2593,206.8202,147.5539,212.5903,0,U,57399,999,15976,.25839E-3,.7353E-4,0
TIANMU-1 08,2023-101B,2026-06-04T20:01:46.595712,15.29664008,.0004863,97.2583,206.5601,145.4575,214.6983,0,U,57400,999,15975,.27085E-3,.7714E-4,0
TIANMU-1 09,2023-101C,2026-06-04T21:12:25.540416,15.29691315,.0003642,97.2540,206.0301,155.7464,204.3949,0,U,57401,999,15976,.27751E-3,.7911E-4,0
TIANMU-1 10,2023-101D,2026-06-04T20:25:29.309952,15.29661309,.0005213,97.2619,207.0362,159.7390,200.4059,0,U,57402,999,15975,.261E-3,.743E-4,0
FENGYUN 3F,2023-111A,2026-06-04T20:30:01.159776,14.19936984,.0001569,98.6837,226.0924,102.3129,257.8223,0,U,57490,999,14711,.55191E-4,.74E-6,0
ARKTIKA-M 2,2023-198A,2026-06-01T19:23:46.713120,2.00592153,.68981271,63.2208,156.0807,267.4735,18.7853,0,U,58584,999,1801,0,.145E-5,0
TIANMU-1 11,2023-205A,2026-06-04T20:44:42.109728,15.26862066,.001028,97.3448,177.6157,56.1694,304.0522,0,U,58645,999,13564,.25461E-3,.6656E-4,0
TIANMU-1 12,2023-205B,2026-06-04T20:01:35.296320,15.26822812,.0008173,97.3437,177.3446,43.9990,316.1898,0,U,58646,999,13562,.25686E-3,.6704E-4,0
TIANMU-1 13,2023-205C,2026-06-04T20:46:14.175840,15.26678271,.000741,97.3464,177.6458,25.7869,334.3738,0,U,58647,999,13562,.27175E-3,.7065E-4,0
TIANMU-1 14,2023-205D,2026-06-04T20:25:27.094656,15.26722925,.0008404,97.3401,176.8231,28.9847,331.1857,0,U,58648,999,13562,.2593E-3,.6748E-4,0
TIANMU-1 19,2023-208A,2026-06-04T06:49:49.911744,15.31369926,.00049485,97.4498,271.5216,19.4611,340.6818,0,U,58660,999,13535,.31574796E-3,.9493E-4,0
TIANMU-1 20,2023-208B,2026-06-04T18:56:50.542368,15.32571037,.0007146,97.4439,272.6513,20.3907,339.7619,0,U,58661,999,13552,.30619E-3,.956E-4,0
